CCSDS_OMM_VERS = 2.0
CREATION_DATE  = 
ORIGINATOR     = 

OBJECT_NAME    = TRANSPORTER-15M
OBJECT_ID      = 2025-276M
CENTER_NAME    = EARTH
REF_FRAME      = TEME
TIME_SYSTEM    = UTC
MEAN_ELEMENT_THEORY = SGP/SGP4

EPOCH          = 2025-12-27T09:07:24.616128
MEAN_MOTION    = 15.17651336
ECCENTRICITY   = .0004313
INCLINATION    = 97.4376
RA_OF_ASC_NODE = 72.8727
ARG_OF_PERICENTER = 249.8768
MEAN_ANOMALY   = 110.2002

EPHEMERIS_TYPE = 0
CLASSIFICATION_TYPE = U
NORAD_CAT_ID   = 66677
ELEMENT_SET_NO = 999
REV_AT_EPOCH   = 434
BSTAR          = .25152E-2
MEAN_MOTION_DOT = .50887E-3
MEAN_MOTION_DDOT = 0

CCSDS_OMM_VERS = 2.0
CREATION_DATE  = 
ORIGINATOR     = 

OBJECT_NAME    = TRANSPORTER-15N
OBJECT_ID      = 2025-276N
CENTER_NAME    = EARTH
REF_FRAME      = TEME
TIME_SYSTEM    = UTC
MEAN_ELEMENT_THEORY = SGP/SGP4

EPOCH          = 2025-12-27T10:55:36.819264
MEAN_MOTION    = 15.16330553
ECCENTRICITY   = .0003817
INCLINATION    = 97.4382
RA_OF_ASC_NODE = 72.9205
ARG_OF_PERICENTER = 67.3372
MEAN_ANOMALY   = 292.8264

EPHEMERIS_TYPE = 0
CLASSIFICATION_TYPE = U
NORAD_CAT_ID   = 66678
ELEMENT_SET_NO = 999
REV_AT_EPOCH   = 435
BSTAR          = -.17995E-1
MEAN_MOTION_DOT = -.333292E-2
MEAN_MOTION_DDOT = 0

CCSDS_OMM_VERS = 2.0
CREATION_DATE  = 
ORIGINATOR     = 

OBJECT_NAME    = TRANSPORTER-15P
OBJECT_ID      = 2025-276P
CENTER_NAME    = EARTH
REF_FRAME      = TEME
TIME_SYSTEM    = UTC
MEAN_ELEMENT_THEORY = SGP/SGP4

EPOCH          = 2025-12-27T10:58:07.794624
MEAN_MOTION    = 15.16732458
ECCENTRICITY   = .0004784
INCLINATION    = 97.4359
RA_OF_ASC_NODE = 72.9177
ARG_OF_PERICENTER = 236.9324
MEAN_ANOMALY   = 123.1450

EPHEMERIS_TYPE = 0
CLASSIFICATION_TYPE = U
NORAD_CAT_ID   = 66679
ELEMENT_SET_NO = 999
REV_AT_EPOCH   = 435
BSTAR          = .21037E-3
MEAN_MOTION_DOT = .406E-4
MEAN_MOTION_DDOT = 0

CCSDS_OMM_VERS = 2.0
CREATION_DATE  = 
ORIGINATOR     = 

OBJECT_NAME    = TRANSPORTER-15Q
OBJECT_ID      = 2025-276Q
CENTER_NAME    = EARTH
REF_FRAME      = TEME
TIME_SYSTEM    = UTC
MEAN_ELEMENT_THEORY = SGP/SGP4

EPOCH          = 2025-12-27T10:55:23.136096
MEAN_MOTION    = 15.16898987
ECCENTRICITY   = .0004954
INCLINATION    = 97.4406
RA_OF_ASC_NODE = 72.9365
ARG_OF_PERICENTER = 226.6275
MEAN_ANOMALY   = 133.4546

EPHEMERIS_TYPE = 0
CLASSIFICATION_TYPE = U
NORAD_CAT_ID   = 66680
ELEMENT_SET_NO = 999
REV_AT_EPOCH   = 435
BSTAR          = .51327E-3
MEAN_MOTION_DOT = .10055E-3
MEAN_MOTION_DDOT = 0

CCSDS_OMM_VERS = 2.0
CREATION_DATE  = 
ORIGINATOR     = 

OBJECT_NAME    = TRANSPORTER-15R
OBJECT_ID      = 2025-276R
CENTER_NAME    = EARTH
REF_FRAME      = TEME
TIME_SYSTEM    = UTC
MEAN_ELEMENT_THEORY = SGP/SGP4

EPOCH          = 2025-12-27T10:45:12.419424
MEAN_MOTION    = 15.17612874
ECCENTRICITY   = .0004943
INCLINATION    = 97.4328
RA_OF_ASC_NODE = 72.9185
ARG_OF_PERICENTER = 255.8882
MEAN_ANOMALY   = 104.1802

EPHEMERIS_TYPE = 0
CLASSIFICATION_TYPE = U
NORAD_CAT_ID   = 66681
ELEMENT_SET_NO = 999
REV_AT_EPOCH   = 435
BSTAR          = .88057E-3
MEAN_MOTION_DOT = .17674E-3
MEAN_MOTION_DDOT = 0

CCSDS_OMM_VERS = 2.0
CREATION_DATE  = 
ORIGINATOR     = 

OBJECT_NAME    = TRANSPORTER-15S
OBJECT_ID      = 2025-276S
CENTER_NAME    = EARTH
REF_FRAME      = TEME
TIME_SYSTEM    = UTC
MEAN_ELEMENT_THEORY = SGP/SGP4

EPOCH          = 2025-12-26T23:51:45.551808
MEAN_MOTION    = 15.13006162
ECCENTRICITY   = .00165644
INCLINATION    = 97.4342
RA_OF_ASC_NODE = 72.4972
ARG_OF_PERICENTER = 119.3207
MEAN_ANOMALY   = 240.9682

EPHEMERIS_TYPE = 0
CLASSIFICATION_TYPE = U
NORAD_CAT_ID   = 66682
ELEMENT_SET_NO = 999
REV_AT_EPOCH   = 428
BSTAR          = -.28771681E-1
MEAN_MOTION_DOT = -.477853E-2
MEAN_MOTION_DDOT = 0

CCSDS_OMM_VERS = 2.0
CREATION_DATE  = 
ORIGINATOR     = 

OBJECT_NAME    = TRANSPORTER-15T
OBJECT_ID      = 2025-276T
CENTER_NAME    = EARTH
REF_FRAME      = TEME
TIME_SYSTEM    = UTC
MEAN_ELEMENT_THEORY = SGP/SGP4

EPOCH          = 2025-12-27T10:51:44.493120
MEAN_MOTION    = 15.17074440
ECCENTRICITY   = .0004956
INCLINATION    = 97.4443
RA_OF_ASC_NODE = 72.9535
ARG_OF_PERICENTER = 221.5373
MEAN_ANOMALY   = 138.5485

EPHEMERIS_TYPE = 0
CLASSIFICATION_TYPE = U
NORAD_CAT_ID   = 66683
ELEMENT_SET_NO = 999
REV_AT_EPOCH   = 435
BSTAR          = .26726E-3
MEAN_MOTION_DOT = .5227E-4
MEAN_MOTION_DDOT = 0

CCSDS_OMM_VERS = 2.0
CREATION_DATE  = 
ORIGINATOR     = 

OBJECT_NAME    = TRANSPORTER-15U
OBJECT_ID      = 2025-276U
CENTER_NAME    = EARTH
REF_FRAME      = TEME
TIME_SYSTEM    = UTC
MEAN_ELEMENT_THEORY = SGP/SGP4

EPOCH          = 2025-12-27T10:45:48.233952
MEAN_MOTION    = 15.17436154
ECCENTRICITY   = .0004718
INCLINATION    = 97.4467
RA_OF_ASC_NODE = 72.9678
ARG_OF_PERICENTER = 220.4165
MEAN_ANOMALY   = 139.6719

EPHEMERIS_TYPE = 0
CLASSIFICATION_TYPE = U
NORAD_CAT_ID   = 66684
ELEMENT_SET_NO = 999
REV_AT_EPOCH   = 435
BSTAR          = .66755E-3
MEAN_MOTION_DOT = .13306E-3
MEAN_MOTION_DDOT = 0

CCSDS_OMM_VERS = 2.0
CREATION_DATE  = 
ORIGINATOR     = 

OBJECT_NAME    = TRANSPORTER-15V
OBJECT_ID      = 2025-276V
CENTER_NAME    = EARTH
REF_FRAME      = TEME
TIME_SYSTEM    = UTC
MEAN_ELEMENT_THEORY = SGP/SGP4

EPOCH          = 2025-12-27T02:47:35.884320
MEAN_MOTION    = 15.21953501
ECCENTRICITY   = .00085593
INCLINATION    = 97.4444
RA_OF_ASC_NODE = 72.6316
ARG_OF_PERICENTER = 36.5472
MEAN_ANOMALY   = 323.6347

EPHEMERIS_TYPE = 0
CLASSIFICATION_TYPE = U
NORAD_CAT_ID   = 66685
ELEMENT_SET_NO = 999
REV_AT_EPOCH   = 430
BSTAR          = .15371794E+0
MEAN_MOTION_DOT = .3971994E-1
MEAN_MOTION_DDOT = 0

CCSDS_OMM_VERS = 2.0
CREATION_DATE  = 
ORIGINATOR     = 

OBJECT_NAME    = TRANSPORTER-15W
OBJECT_ID      = 2025-276W
CENTER_NAME    = EARTH
REF_FRAME      = TEME
TIME_SYSTEM    = UTC
MEAN_ELEMENT_THEORY = SGP/SGP4

EPOCH          = 2025-12-27T10:50:37.356000
MEAN_MOTION    = 15.17070780
ECCENTRICITY   = .0004389
INCLINATION    = 97.4446
RA_OF_ASC_NODE = 72.9563
ARG_OF_PERICENTER = 222.4696
MEAN_ANOMALY   = 137.6198

EPHEMERIS_TYPE = 0
CLASSIFICATION_TYPE = U
NORAD_CAT_ID   = 66686
ELEMENT_SET_NO = 999
REV_AT_EPOCH   = 435
BSTAR          = .40235E-3
MEAN_MOTION_DOT = .7904E-4
MEAN_MOTION_DDOT = 0

CCSDS_OMM_VERS = 2.0
CREATION_DATE  = 
ORIGINATOR     = 

OBJECT_NAME    = TRANSPORTER-15X
OBJECT_ID      = 2025-276X
CENTER_NAME    = EARTH
REF_FRAME      = TEME
TIME_SYSTEM    = UTC
MEAN_ELEMENT_THEORY = SGP/SGP4

EPOCH          = 2025-12-27T10:59:34.058976
MEAN_MOTION    = 15.16825305
ECCENTRICITY   = .000806
INCLINATION    = 97.4384
RA_OF_ASC_NODE = 72.9226
ARG_OF_PERICENTER = 39.3211
MEAN_ANOMALY   = 320.8606

EPHEMERIS_TYPE = 0
CLASSIFICATION_TYPE = U
NORAD_CAT_ID   = 66687
ELEMENT_SET_NO = 999
REV_AT_EPOCH   = 435
BSTAR          = .67098E-3
MEAN_MOTION_DOT = .1315E-3
MEAN_MOTION_DDOT = 0

CCSDS_OMM_VERS = 2.0
CREATION_DATE  = 
ORIGINATOR     = 

OBJECT_NAME    = TRANSPORTER-15Y
OBJECT_ID      = 2025-276Y
CENTER_NAME    = EARTH
REF_FRAME      = TEME
TIME_SYSTEM    = UTC
MEAN_ELEMENT_THEORY = SGP/SGP4

EPOCH          = 2025-12-27T10:49:00.290784
MEAN_MOTION    = 15.17145158
ECCENTRICITY   = .0003877
INCLINATION    = 97.4424
RA_OF_ASC_NODE = 72.9501
ARG_OF_PERICENTER = 227.0791
MEAN_ANOMALY   = 133.0118

EPHEMERIS_TYPE = 0
CLASSIFICATION_TYPE = U
NORAD_CAT_ID   = 66688
ELEMENT_SET_NO = 999
REV_AT_EPOCH   = 435
BSTAR          = .47738E-3
MEAN_MOTION_DOT = .9412E-4
MEAN_MOTION_DDOT = 0

