TRANSPORTER-15M         
1 66677U 25276M   25361.38014602  .00050887  00000+0  25152-2 0  9999
2 66677  97.4376  72.8727 0004313 249.8768 110.2002 15.17651336  4343
TRANSPORTER-15N         
1 66678U 25276N   25361.45528726 -.00333292  00000+0 -17995-1 0  9996
2 66678  97.4382  72.9205 0003817  67.3372 292.8264 15.16330553  4357
TRANSPORTER-15P         
1 66679U 25276P   25361.45703466  .00004060  00000+0  21037-3 0  9993
2 66679  97.4359  72.9177 0004784 236.9324 123.1450 15.16732458  4358
TRANSPORTER-15Q         
1 66680U 25276Q   25361.45512889  .00010055  00000+0  51327-3 0  9998
2 66680  97.4406  72.9365 0004954 226.6275 133.4546 15.16898987  4352
TRANSPORTER-15R         
1 66681U 25276R   25361.44806041  .00017674  00000+0  88057-3 0  9998
2 66681  97.4328  72.9185 0004943 255.8882 104.1802 15.17612874  4352
TRANSPORTER-15S         
1 66682U 25276S   25360.99427722 -.00477853  00000+0 -28772-1 0  9990
2 66682  97.4342  72.4972 0016564 119.3207 240.9682 15.13006162  4285
TRANSPORTER-15T         
1 66683U 25276T   25361.45259830  .00005227  00000+0  26726-3 0  9995
2 66683  97.4443  72.9535 0004956 221.5373 138.5485 15.17074440  4359
TRANSPORTER-15U         
1 66684U 25276U   25361.44847493  .00013306  00000+0  66755-3 0  9996
2 66684  97.4467  72.9678 0004718 220.4165 139.6719 15.17436154  4353
TRANSPORTER-15V         
1 66685U 25276V   25361.11638755  .03971994  00000+0  15372+0 0  9994
2 66685  97.4444  72.6316 0008559  36.5472 323.6347 15.21953501  4301
TRANSPORTER-15W         
1 66686U 25276W   25361.45182125  .00007904  00000+0  40235-3 0  9995
2 66686  97.4446  72.9563 0004389 222.4696 137.6198 15.17070780  4358
TRANSPORTER-15X         
1 66687U 25276X   25361.45803309  .00013150  00000+0  67098-3 0  9996
2 66687  97.4384  72.9226 0008060  39.3211 320.8606 15.16825305  4354
TRANSPORTER-15Y         
1 66688U 25276Y   25361.45069781  .00009412  00000+0  47738-3 0  9990
2 66688  97.4424  72.9501 0003877 227.0791 133.0118 15.17145158  4350
